{"type": "FeatureCollection", "features": [ {"type": "Feature", "properties": {"norad_id": 54234, "name": "NOAA 21 (JPSS-2)", "group": "weather", "lat": -18.818008294657425, "lon": 109.13176097311889, "alt_km": 833.2784899161534, "timestamp": "2025-12-21T22:41:41.091144+00:00", "meta": {"OBJECT_NAME": "NOAA 21 (JPSS-2)", "OBJECT_ID": "2022-150A", "EPOCH": "2025-12-21T13:18:08.119296", "MEAN_MOTION": 14.19526418, "ECCENTRICITY": 0.00018257, "INCLINATION": 98.7474, "RA_OF_ASC_NODE": 291.7529, "ARG_OF_PERICENTER": 20.2284, "MEAN_ANOMALY": 339.8964, "EPHEMERIS_TYPE": 0, "CLASSIFICATION_TYPE": "U", "NORAD_CAT_ID": 54234, "ELEMENT_SET_NO": 999, "REV_AT_EPOCH": 16134, "BSTAR": 4.8896383e-05, "MEAN_MOTION_DOT": 5.9e-07, "MEAN_MOTION_DDOT": 0}, "tle": {"line1": "1 54234U 22150A   25355.55426064  .00000059  00000+0  48896-4 0  9992", "line2": "2 54234  98.7474 291.7529 0001825  20.2284 339.8964 14.19526418161346"}}, "geometry": {"type": "Point", "coordinates": [109.13176097311889, -18.818008294657425]}}, {"type": "Feature", "properties": {"norad_id": 54743, "name": "METEOSAT-12 (MTG-I1)", "group": "weather", "lat": 0.5232543057283641, "lon": 70.86022845753352, "alt_km": 35792.45762076736, "timestamp": "2025-12-21T22:41:41.091156+00:00", "meta": {"OBJECT_NAME": "METEOSAT-12 (MTG-I1)", "OBJECT_ID": "2022-170C", "EPOCH": "2025-12-21T08:03:36.398880", "MEAN_MOTION": 1.00270654, "ECCENTRICITY": 0.00014955, "INCLINATION": 0.6957, "RA_OF_ASC_NODE": 25.0288, "ARG_OF_PERICENTER": 239.5899, "MEAN_ANOMALY": 306.1292, "EPHEMERIS_TYPE": 0, "CLASSIFICATION_TYPE": "U", "NORAD_CAT_ID": 54743, "ELEMENT_SET_NO": 999, "REV_AT_EPOCH": 1119, "BSTAR": 0, "MEAN_MOTION_DOT": 1.5e-07, "MEAN_MOTION_DDOT": 0}, "tle": {"line1": "1 54743U 22170C   25355.33583795  .00000015  00000+0  00000+0 0  9992", "line2": "2 54743   0.6957  25.0288 0001495 239.5899 306.1292  1.00270654 11191"}}, "geometry": {"type": "Point", "coordinates": [70.86022845753352, 0.5232543057283641]}}, {"type": "Feature", "properties": {"norad_id": 55973, "name": "TIANMU-1 03", "group": "weather", "lat": -5.726347756644498, "lon": -21.902427519818243, "alt_km": 448.8475642778949, "timestamp": "2025-12-21T22:41:41.091170+00:00", "meta": {"OBJECT_NAME": "TIANMU-1 03", "OBJECT_ID": "2023-039A", "EPOCH": "2025-12-21T14:06:01.914624", "MEAN_MOTION": 15.4116193, "ECCENTRICITY": 0.00039567, "INCLINATION": 97.5106, "RA_OF_ASC_NODE": 158.4875, "ARG_OF_PERICENTER": 35.7866, "MEAN_ANOMALY": 324.3645, "EPHEMERIS_TYPE": 0, "CLASSIFICATION_TYPE": "U", "NORAD_CAT_ID": 55973, "ELEMENT_SET_NO": 999, "REV_AT_EPOCH": 15342, "BSTAR": 0.00030526294, "MEAN_MOTION_DOT": 0.00012575, "MEAN_MOTION_DDOT": 0}, "tle": {"line1": "1 55973U 23039A   25355.58752216  .00012575  00000+0  30526-3 0  9990", "line2": "2 55973  97.5106 158.4875 0003956  35.7866 324.3645 15.41161930153428"}}, "geometry": {"type": "Point", "coordinates": [-21.902427519818243, -5.726347756644498]}}, {"type": "Feature", "properties": {"norad_id": 55974, "name": "TIANMU-1 04", "group": "weather", "lat": -48.74830276430277, "lon": 166.68705475573017, "alt_km": 447.8852397023238, "timestamp": "2025-12-21T22:41:41.091181+00:00", "meta": {"OBJECT_NAME": "TIANMU-1 04", "OBJECT_ID": "2023-039B", "EPOCH": "2025-12-21T13:33:38.304288", "MEAN_MOTION": 15.41502296, "ECCENTRICITY": 0.00045944, "INCLINATION": 97.5038, "RA_OF_ASC_NODE": 157.6519, "ARG_OF_PERICENTER": 29.6149, "MEAN_ANOMALY": 330.5357, "EPHEMERIS_TYPE": 0, "CLASSIFICATION_TYPE": "U", "NORAD_CAT_ID": 55974, "ELEMENT_SET_NO": 999, "REV_AT_EPOCH": 15342, "BSTAR": 0.00030061047, "MEAN_MOTION_DOT": 0.00012524, "MEAN_MOTION_DDOT": 0}, "tle": {"line1": "1 55974U 23039B   25355.56502667  .00012524  00000+0  30061-3 0  9990", "line2": "2 55974  97.5038 157.6519 0004594  29.6149 330.5357 15.41502296153427"}}, "geometry": {"type": "Point", "coordinates": [166.68705475573017, -48.74830276430277]}}, {"type": "Feature", "properties": {"norad_id": 55975, "name": "TIANMU-1 05", "group": "weather", "lat": -29.793969343266, "lon": 162.86676278171666, "alt_km": 448.48395167162107, "timestamp": "2025-12-21T22:41:41.091191+00:00", "meta": {"OBJECT_NAME": "TIANMU-1 05", "OBJECT_ID": "2023-039C", "EPOCH": "2025-12-21T13:28:30.188064", "MEAN_MOTION": 15.41118086, "ECCENTRICITY": 0.00040807, "INCLINATION": 97.5085, "RA_OF_ASC_NODE": 158.1409, "ARG_OF_PERICENTER": 54.5491, "MEAN_ANOMALY": 305.6136, "EPHEMERIS_TYPE": 0, "CLASSIFICATION_TYPE": "U", "NORAD_CAT_ID": 55975, "ELEMENT_SET_NO": 999, "REV_AT_EPOCH": 15340, "BSTAR": 0.00029741505, "MEAN_MOTION_DOT": 0.00012231, "MEAN_MOTION_DDOT": 0}, "tle": {"line1": "1 55975U 23039C   25355.56146051  .00012231  00000+0  29742-3 0  9991", "line2": "2 55975  97.5085 158.1409 0004080  54.5491 305.6136 15.41118086153407"}}, "geometry": {"type": "Point", "coordinates": [162.86676278171666, -29.793969343266]}}, {"type": "Feature", "properties": {"norad_id": 55976, "name": "TIANMU-1 06", "group": "weather", "lat": -58.804155718738386, "lon": 171.59152910445707, "alt_km": 449.5119435119368, "timestamp": "2025-12-21T22:41:41.091203+00:00", "meta": {"OBJECT_NAME": "TIANMU-1 06", "OBJECT_ID": "2023-039D", "EPOCH": "2025-12-21T13:36:20.662848", "MEAN_MOTION": 15.41553789, "ECCENTRICITY": 0.000436, "INCLINATION": 97.5096, "RA_OF_ASC_NODE": 158.6189, "ARG_OF_PERICENTER": 48.587, "MEAN_ANOMALY": 311.575, "EPHEMERIS_TYPE": 0, "CLASSIFICATION_TYPE": "U", "NORAD_CAT_ID": 55976, "ELEMENT_SET_NO": 999, "REV_AT_EPOCH": 15342, "BSTAR": 0.00029831757, "MEAN_MOTION_DOT": 0.00012449, "MEAN_MOTION_DDOT": 0}, "tle": {"line1": "1 55976U 23039D   25355.56690582  .00012449  00000+0  29832-3 0  9996", "line2": "2 55976  97.5096 158.6189 0004360  48.5870 311.5750 15.41553789153428"}}, "geometry": {"type": "Point", "coordinates": [171.59152910445707, -58.804155718738386]}}, {"type": "Feature", "properties": {"norad_id": 56232, "name": "FENGYUN 3G", "group": "weather", "lat": 25.841389254325456, "lon": -24.075086667958697, "alt_km": 396.8167422016404, "timestamp": "2025-12-21T22:41:41.091214+00:00", "meta": {"OBJECT_NAME": "FENGYUN 3G", "OBJECT_ID": "2023-055A", "EPOCH": "2025-12-21T14:21:24.761664", "MEAN_MOTION": 15.54132205, "ECCENTRICITY": 0.0009317, "INCLINATION": 49.9916, "RA_OF_ASC_NODE": 181.7239, "ARG_OF_PERICENTER": 188.4553, "MEAN_ANOMALY": 171.6259, "EPHEMERIS_TYPE": 0, "CLASSIFICATION_TYPE": "U", "NORAD_CAT_ID": 56232, "ELEMENT_SET_NO": 999, "REV_AT_EPOCH": 15240, "BSTAR": 0.0004093558, "MEAN_MOTION_DOT": 0.000268, "MEAN_MOTION_DDOT": 0}, "tle": {"line1": "1 56232U 23055A   25355.59820326  .00026800  00000+0  40936-3 0  9998", "line2": "2 56232  49.9916 181.7239 0009317 188.4553 171.6259 15.54132205152404"}}, "geometry": {"type": "Point", "coordinates": [-24.075086667958697, 25.841389254325456]}}, {"type": "Feature", "properties": {"norad_id": 57166, "name": "METEOR-M2 3", "group": "weather", "lat": -72.20952686823497, "lon": -158.9476743961564, "alt_km": 818.8956653338155, "timestamp": "2025-12-21T22:41:41.091224+00:00", "meta": {"OBJECT_NAME": "METEOR-M2 3", "OBJECT_ID": "2023-091A", "EPOCH": "2025-12-21T14:45:30.015936", "MEAN_MOTION": 14.24027085, "ECCENTRICITY": 0.00034219, "INCLINATION": 98.6365, "RA_OF_ASC_NODE": 48.9988, "ARG_OF_PERICENTER": 341.9215, "MEAN_ANOMALY": 18.1841, "EPHEMERIS_TYPE": 0, "CLASSIFICATION_TYPE": "U", "NORAD_CAT_ID": 57166, "ELEMENT_SET_NO": 999, "REV_AT_EPOCH": 12924, "BSTAR": 2.2028838e-05, "MEAN_MOTION_DOT": 7e-08, "MEAN_MOTION_DDOT": 0}, "tle": {"line1": "1 57166U 23091A   25355.61493074  .00000007  00000+0  22029-4 0  9999", "line2": "2 57166  98.6365  48.9988 0003421 341.9215  18.1841 14.24027085129249"}}, "geometry": {"type": "Point", "coordinates": [-158.9476743961564, -72.20952686823497]}}, {"type": "Feature", "properties": {"norad_id": 57399, "name": "TIANMU-1 07", "group": "weather", "lat": -72.68705617618937, "lon": 69.82674397042732, "alt_km": 490.9609988188922, "timestamp": "2025-12-21T22:41:41.091234+00:00", "meta": {"OBJECT_NAME": "TIANMU-1 07", "OBJECT_ID": "2023-101A", "EPOCH": "2025-12-21T15:09:42.463872", "MEAN_MOTION": 15.28187172, "ECCENTRICITY": 0.00052416, "INCLINATION": 97.2862, "RA_OF_ASC_NODE": 45.2856, "ARG_OF_PERICENTER": 59.0298, "MEAN_ANOMALY": 301.1456, "EPHEMERIS_TYPE": 0, "CLASSIFICATION_TYPE": "U", "NORAD_CAT_ID": 57399, "ELEMENT_SET_NO": 999, "REV_AT_EPOCH": 13451, "BSTAR": 0.00021479387, "MEAN_MOTION_DOT": 5.83e-05, "MEAN_MOTION_DDOT": 0}, "tle": {"line1": "1 57399U 23101A   25355.63174148  .00005830  00000+0  21479-3 0  9995", "line2": "2 57399  97.2862  45.2856 0005241  59.0298 301.1456 15.28187172134510"}}, "geometry": {"type": "Point", "coordinates": [69.82674397042732, -72.68705617618937]}}, {"type": "Feature", "properties": {"norad_id": 57400, "name": "TIANMU-1 08", "group": "weather", "lat": 71.46036618833541, "lon": -112.18687328214064, "alt_km": 471.2054013037641, "timestamp": "2025-12-21T22:41:41.091244+00:00", "meta": {"OBJECT_NAME": "TIANMU-1 08", "OBJECT_ID": "2023-101B", "EPOCH": "2025-12-21T14:22:15.321216", "MEAN_MOTION": 15.28169488, "ECCENTRICITY": 0.00071644, "INCLINATION": 97.2851, "RA_OF_ASC_NODE": 45.0498, "ARG_OF_PERICENTER": 58.8455, "MEAN_ANOMALY": 301.3487, "EPHEMERIS_TYPE": 0, "CLASSIFICATION_TYPE": "U", "NORAD_CAT_ID": 57400, "ELEMENT_SET_NO": 999, "REV_AT_EPOCH": 13450, "BSTAR": 0.00020691769, "MEAN_MOTION_DOT": 5.612e-05, "MEAN_MOTION_DDOT": 0}, "tle": {"line1": "1 57400U 23101B   25355.59878844  .00005612  00000+0  20692-3 0  9991", "line2": "2 57400  97.2851  45.0498 0007164  58.8455 301.3487 15.28169488134504"}}, "geometry": {"type": "Point", "coordinates": [-112.18687328214064, 71.46036618833541]}}]}